[{"OBJECT_NAME":"PATHFINDER 1","OBJECT_ID":"2016-059E","EPOCH":"2026-03-09T22:26:32.347968","MEAN_MOTION":14.67518797,"ECCENTRICITY":0.00289613,"INCLINATION":97.8179,"RA_OF_ASC_NODE":72.6978,"ARG_OF_PERICENTER":160.0111,"MEAN_ANOMALY":200.2236,"EPHEMERIS_TYPE":0,"CLASSIFICATION_TYPE":"U","NORAD_CAT_ID":41787,"ELEMENT_SET_NO":999,"REV_AT_EPOCH":50515,"BSTAR":0.00018125608,"MEAN_MOTION_DOT":9.87e-6,"MEAN_MOTION_DDOT":0},{"OBJECT_NAME":"NOAA 7 DEB","OBJECT_ID":"1981-059C","EPOCH":"2026-03-09T22:37:34.538304","MEAN_MOTION":14.6468313,"ECCENTRICITY":0.00012471,"INCLINATION":98.9321,"RA_OF_ASC_NODE":190.3946,"ARG_OF_PERICENTER":250.4781,"MEAN_ANOMALY":250.0459,"EPHEMERIS_TYPE":0,"CLASSIFICATION_TYPE":"U","NORAD_CAT_ID":12560,"ELEMENT_SET_NO":999,"REV_AT_EPOCH":34296,"BSTAR":0.0010000676,"MEAN_MOTION_DOT":5.269e-5,"MEAN_MOTION_DDOT":0}]
